NORAD_CAT_ID,OBJECT_NAME,OBJECT_TYPE,EPOCH,MEAN_MOTION,ECCENTRICITY,INCLINATION,RA_OF_ASC_NODE,ARG_OF_PERICENTER,MEAN_ANOMALY,BSTAR,MEAN_MOTION_DOT,MEAN_MOTION_DDOT,TLE_LINE0,TLE_LINE1,TLE_LINE2,SEMIMAJOR_AXIS,PERIOD,APOGEE,PERIGEE,DECAYED
55914.0,STARLINK-5856,PAYLOAD,2023-06-20 00:51:27,14.98332753,0.0003501,69.9993,289.9607,265.1686,94.9073,0.00011799,1.315e-05,0.0,0 STARLINK-5856,1 55914U 23037A   23171.03573643  .00001315  00000-0  11799-3 0  9994,2 55914  69.9993 289.9607 0003501 265.1686  94.9073 14.98332753 14984,6950.184,96.107,574.483,569.616,0.0
55914.0,STARLINK-5856,PAYLOAD,2023-06-20 07:16:00,14.98333654,0.000332,69.9997,289.2879,264.3578,95.7203,-2.5924e-05,-4.02e-06,0.0,0 STARLINK-5856,1 55914U 23037A   23171.30277989 -.00000402  00000-0 -25924-4 0  9992,2 55914  69.9997 289.2879 0003320 264.3578  95.7203 14.98333654 15371,6950.182,96.107,574.354,569.739,0.0
55914.0,STARLINK-5856,PAYLOAD,2023-06-20 16:52:48,14.98330268,0.0003213,70.0,288.2774,264.4555,95.6238,-2.5919e-05,-4.02e-06,0.0,0 STARLINK-5856,1 55914U 23037A   23171.70334136 -.00000402  00000-0 -25919-4 0  9998,2 55914  70.0000 288.2774 0003213 264.4555  95.6238 14.98330268 15082,6950.192,96.107,574.29,569.824,0.0
55914.0,STARLINK-5856,PAYLOAD,2023-06-21 13:42:33,14.98330387,0.0003223,69.9999,286.0893,263.8061,96.2731,-7.4684e-05,-9.84e-06,0.0,0 STARLINK-5856,1 55914U 23037A   23172.57122117 -.00000984  00000-0 -74684-4 0  9996,2 55914  69.9999 286.0893 0003223 263.8061  96.2731 14.98330387 15560,6950.192,96.107,574.297,569.817,0.0
55914.0,STARLINK-5856,PAYLOAD,2023-06-21 16:54:49,14.98331786,0.000333,69.9997,285.7526,269.0818,90.996,-7.8099e-05,-1.025e-05,0.0,0 STARLINK-5856,1 55914U 23037A   23172.70474047 -.00001025  00000-0 -78099-4 0  9994,2 55914  69.9997 285.7526 0003330 269.0818  90.9960 14.98331786 15237,6950.187,96.107,574.367,569.738,0.0
55914.0,STARLINK-5856,PAYLOAD,2023-06-22 00:55:30,14.98321836,0.0003295,69.9997,284.9112,259.8754,100.2033,2.0995e-05,1.57e-06,0.0,0 STARLINK-5856,1 55914U 23037A   23173.03854409  .00000157  00000-0  20995-4 0  9990,2 55914  69.9997 284.9112 0003295 259.8754 100.2033 14.98321836 15281,6950.218,96.108,574.373,569.793,0.0
55914.0,STARLINK-5856,PAYLOAD,2023-06-22 16:56:50,14.98330015,0.0003694,69.9991,283.2267,269.0256,91.0479,1.7575e-05,1.17e-06,0.0,0 STARLINK-5856,1 55914U 23037A   23173.70613911  .00000117  00000-0  17575-4 0  9991,2 55914  69.9991 283.2267 0003694 269.0256  91.0479 14.98330015 15382,6950.193,96.107,574.625,569.49,0.0
55914.0,STARLINK-5856,PAYLOAD,2023-06-23 16:58:50,14.98334434,0.0003584,69.999,280.7022,269.7017,90.3731,9.2794e-05,1.014e-05,0.0,0 STARLINK-5856,1 55914U 23037A   23174.70753382  .00001014  00000-0  92794-4 0  9992,2 55914  69.9990 280.7022 0003584 269.7017  90.3731 14.98334434 15531,6950.179,96.107,574.535,569.553,0.0
55914.0,STARLINK-5856,PAYLOAD,2023-06-24 09:00:12,14.98325072,0.000365,69.9988,279.0189,269.0462,91.0279,1.3223e-05,6.5e-07,0.0,0 STARLINK-5856,1 55914U 23037A   23175.37514164  .00000065  00000-0  13223-4 0  9994,2 55914  69.9988 279.0189 0003650 269.0462  91.0279 14.98325072 15638,6950.208,96.107,574.61,569.536,0.0
55914.0,STARLINK-5856,PAYLOAD,2023-06-24 18:37:00,14.9832798,0.0003457,69.9988,278.009,267.9796,92.0967,0.00017592,2.007e-05,0.0,0 STARLINK-5856,1 55914U 23037A   23175.77569601  .00002007  00000-0  17592-3 0  9994,2 55914  69.9988 278.0090 0003457 267.9796  92.0967 14.98327980 15691,6950.199,96.107,574.467,569.661,0.0
55914.0,STARLINK-5856,PAYLOAD,2023-06-25 23:27:24,14.98364316,0.0003406,70.0002,274.9791,276.2307,83.8464,-0.00064996,-7.847e-05,0.0,0 STARLINK-5856,1 55914U 23037A   23176.97736962 -.00007847  00000-0 -64996-3 0  9992,2 55914  70.0002 274.9791 0003406 276.2307  83.8464 14.98364316 15873,6950.087,96.105,574.319,569.585,0.0
55914.0,STARLINK-5856,PAYLOAD,2023-06-26 09:04:14,14.98326048,0.000314,70.0001,273.9696,266.001,94.079,-6.1368e-06,-1.66e-06,0.0,0 STARLINK-5856,1 55914U 23037A   23177.37793989 -.00000166  00000-0 -61368-5 0  9998,2 55914  70.0001 273.9696 0003140 266.0010  94.0790 14.98326048 15931,6950.205,96.107,574.252,569.888,0.0
55914.0,STARLINK-5856,PAYLOAD,2023-06-27 10:42:22,14.98329642,0.0003395,69.9997,271.2766,267.4663,92.6107,-7.5462e-06,-1.83e-06,0.0,0 STARLINK-5856,1 55914U 23037A   23178.44609877 -.00000183  00000-0 -75462-5 0  9998,2 55914  69.9997 271.2766 0003395 267.4663  92.6107 14.98329642 16099,6950.194,96.107,574.419,569.699,0.0
55914.0,STARLINK-5856,PAYLOAD,2023-06-27 23:31:26,14.9835733,0.0003583,69.9996,269.9297,261.0253,99.0501,-0.00050874,-6.163e-05,0.0,0 STARLINK-5856,1 55914U 23037A   23178.98017093 -.00006163  00000-0 -50874-3 0  9992,2 55914  69.9996 269.9297 0003583 261.0253  99.0501 14.98357330 16178,6950.108,96.105,574.464,569.483,0.0
55914.0,STARLINK-5856,PAYLOAD,2023-06-28 09:08:15,14.9832604,0.0003565,69.9992,268.9196,268.5678,91.5073,6.6603e-05,7.02e-06,0.0,0 STARLINK-5856,1 55914U 23037A   23179.38073897  .00000702  00000-0  66603-4 0  9990,2 55914  69.9992 268.9196 0003565 268.5678  91.5073 14.98326040 16236,6950.205,96.107,574.548,569.592,0.0
55914.0,STARLINK-5856,PAYLOAD,2023-06-29 10:46:25,14.98323151,0.0003614,69.999,266.2258,268.3531,91.7214,-3.4524e-05,-5.05e-06,0.0,0 STARLINK-5856,1 55914U 23037A   23180.44890435 -.00000505  00000-0 -34524-4 0  9994,2 55914  69.9990 266.2258 0003614 268.3531  91.7214 14.98323151 16391,6950.214,96.107,574.591,569.567,0.0
55914.0,STARLINK-5856,PAYLOAD,2023-07-01 09:14:18,14.98326168,0.0003728,69.999,261.3449,268.9783,91.0948,3.6519e-05,3.43e-06,0.0,0 STARLINK-5856,1 55914U 23037A   23182.38493764  .00000343  00000-0  36519-4 0  9997,2 55914  69.9990 261.3449 0003728 268.9783  91.0948 14.98326168 16680,6950.205,96.107,574.661,569.479,0.0
55914.0,STARLINK-5856,PAYLOAD,2023-07-02 10:52:27,14.98334089,0.0003711,69.9991,258.6514,269.7824,90.2909,-7.1811e-05,-9.5e-06,0.0,0 STARLINK-5856,1 55914U 23037A   23183.45309503 -.00000950  00000-0 -71811-4 0  9993,2 55914  69.9991 258.6514 0003711 269.7824  90.2909 14.98334089 16847,6950.18,96.107,574.624,569.466,0.0
55914.0,STARLINK-5856,PAYLOAD,2023-07-03 12:30:36,14.98331124,0.0003859,69.9987,255.958,271.0931,88.9786,2.7629e-05,2.37e-06,0.0,0 STARLINK-5856,1 55914U 23037A   23184.52125211  .00000237  00000-0  27629-4 0  9998,2 55914  69.9987 255.9580 0003859 271.0931  88.9786 14.98331124 17006,6950.189,96.107,574.736,569.372,0.0
55914.0,STARLINK-5856,PAYLOAD,2023-07-04 14:08:45,14.98329285,0.0003867,69.9987,253.2647,271.0027,89.0689,-8.7667e-06,-1.98e-06,0.0,0 STARLINK-5856,1 55914U 23037A   23185.58941407 -.00000198  00000-0 -87667-5 0  9995,2 55914  69.9987 253.2647 0003867 271.0027  89.0689 14.98329285 17162,6950.195,96.107,574.748,569.372,0.0
55914.0,STARLINK-5856,PAYLOAD,2023-07-05 14:10:46,14.98330251,0.0003988,69.9988,250.7392,269.7315,90.3387,-6.6949e-06,-1.73e-06,0.0,0 STARLINK-5856,1 55914U 23037A   23186.59081255 -.00000173  00000-0 -66949-5 0  9996,2 55914  69.9988 250.7392 0003988 269.7315  90.3387 14.98330251 17312,6950.192,96.107,574.829,569.285,0.0
55914.0,STARLINK-5856,PAYLOAD,2023-07-06 14:12:46,14.98333779,0.0004035,69.9986,248.2146,268.9658,91.1039,4.0711e-05,3.93e-06,0.0,0 STARLINK-5856,1 55914U 23037A   23187.59220798  .00000393  00000-0  40711-4 0  9994,2 55914  69.9986 248.2146 0004035 268.9658  91.1039 14.98333779 17461,6950.181,96.107,574.851,569.242,0.0
55914.0,STARLINK-5856,PAYLOAD,2023-07-08 07:52:15,14.98341597,0.0004032,69.9991,243.8382,268.4853,91.5844,8.3802e-05,9.07e-06,0.0,0 STARLINK-5856,1 55914U 23037A   23189.32795555  .00000907  00000-0  83802-4 0  9994,2 55914  69.9991 243.8382 0004032 268.4853  91.5844 14.98341597 17723,6950.157,96.106,574.824,569.22,0.0
55914.0,STARLINK-5856,PAYLOAD,2023-07-09 03:05:52,14.98329164,0.0003106,70.0016,241.8209,255.6053,104.4761,-3.8451e-05,-5.52e-06,0.0,0 STARLINK-5856,1 55914U 23037A   23190.12908480 -.00000552  00000-0 -38451-4 0  9995,2 55914  70.0016 241.8209 0003106 255.6053 104.4761 14.98329164 17842,6950.195,96.107,574.219,569.902,0.0
55914.0,STARLINK-5856,PAYLOAD,2023-07-09 12:42:42,14.98315421,0.0003614,70.0004,240.8103,263.7934,96.2813,-0.00017048,-2.126e-05,0.0,0 STARLINK-5856,1 55914U 23037A   23190.52965838 -.00002126  00000-0 -17048-3 0  9996,2 55914  70.0004 240.8103 0003614 263.7934  96.2813 14.98315421 17907,6950.238,96.108,574.615,569.591,0.0
55914.0,STARLINK-5856,PAYLOAD,2023-07-10 03:07:54,14.98325174,0.0004071,69.9992,239.2936,268.6221,91.4472,-0.0001619,-2.024e-05,0.0,0 STARLINK-5856,1 55914U 23037A   23191.13049361 -.00002024  00000-0 -16190-3 0  9992,2 55914  69.9992 239.2936 0004071 268.6221  91.4472 14.98325174 17990,6950.208,96.107,574.902,569.243,0.0
55914.0,STARLINK-5856,PAYLOAD,2023-07-11 03:09:56,14.9832105,0.0004076,70.0002,236.7685,268.1003,91.9689,0.00029542,3.433e-05,0.0,0 STARLINK-5856,1 55914U 23037A   23192.13189912  .00003433  00000-0  29542-3 0  9998,2 55914  70.0002 236.7685 0004076 268.1003  91.9689 14.98321050 18148,6950.221,96.108,574.918,569.253,0.0
55914.0,STARLINK-5856,PAYLOAD,2023-07-12 09:36:29,14.98340017,0.0004108,70.0006,233.5703,267.5758,92.4931,0.00045185,5.304e-05,0.0,0 STARLINK-5856,1 55914U 23037A   23193.40033568  .00005304  00000-0  45185-3 0  9994,2 55914  70.0006 233.5703 0004108 267.5758  92.4931 14.98340017 18335,6950.162,96.106,574.882,569.172,0.0
55914.0,STARLINK-5856,PAYLOAD,2023-07-13 12:50:45,14.98342635,0.0004113,70.0005,230.7089,267.3091,92.7598,0.00024692,2.855e-05,0.0,0 STARLINK-5856,1 55914U 23037A   23194.53524883  .00002855  00000-0  24692-3 0  9992,2 55914  70.0005 230.7089 0004113 267.3091  92.7598 14.98342635 18503,6950.154,96.106,574.877,569.16,0.0
55914.0,STARLINK-5856,PAYLOAD,2023-07-14 09:40:30,14.98336868,0.0004062,70.0004,228.5212,266.096,93.9735,3.2778e-05,2.98e-06,0.0,0 STARLINK-5856,1 55914U 23037A   23195.40312746  .00000298  00000-0  32778-4 0  9996,2 55914  70.0004 228.5212 0004062 266.0960  93.9735 14.98336868 18630,6950.172,96.107,574.86,569.213,0.0
